[{"OBJECT_NAME":"GCOM-C (SHIKISAI)","OBJECT_ID":"2017-082A","EPOCH":"2026-03-09T22:50:15.762048","MEAN_MOTION":14.27292109,"ECCENTRICITY":0.00011018,"INCLINATION":98.6348,"RA_OF_ASC_NODE":143.8758,"ARG_OF_PERICENTER":107.3468,"MEAN_ANOMALY":252.7834,"EPHEMERIS_TYPE":0,"CLASSIFICATION_TYPE":"U","NORAD_CAT_ID":43065,"ELEMENT_SET_NO":999,"REV_AT_EPOCH":42778,"BSTAR":9.0011429e-5,"MEAN_MOTION_DOT":1.76e-6,"MEAN_MOTION_DDOT":0},{"OBJECT_NAME":"CZ-6A DEB","OBJECT_ID":"2022-151ADC","EPOCH":"2026-03-09T01:20:22.662240","MEAN_MOTION":14.5468906,"ECCENTRICITY":0.01329228,"INCLINATION":98.5294,"RA_OF_ASC_NODE":103.0355,"ARG_OF_PERICENTER":266.5397,"MEAN_ANOMALY":92.0588,"EPHEMERIS_TYPE":0,"CLASSIFICATION_TYPE":"U","NORAD_CAT_ID":56284,"ELEMENT_SET_NO":999,"REV_AT_EPOCH":15533,"BSTAR":0.0015446655,"MEAN_MOTION_DOT":7.388e-5,"MEAN_MOTION_DDOT":0}]
